AXVOVolarioApp
HFDTE090826
HFFXA100
HFPLTPILOTINCHARGE:Maurus
HFGTYGLIDERTYPE:Advance Alpha 7
HFDTM100GPSDATUM:WGS-84
HFRFWFIRMWAREVERSION:1.1.4
HFRHWHARDWAREVERSION:Apple iPhone14,2
HFFTYFRTYPE:XVO,Volario
HFGPS:Smartphone GNSS
HFPRSPRESSALTSENSOR:Smartphone Barometer
I013638FXA
B1501195055122N00701839EA0004500053032
B1501205055099N00701863EA0004500053017
B1501215055078N00701890EA0004500053010
B1501225055062N00701916EA0473000053007
B1501235055046N00701942EA0004300053006
B1501245055031N00701967EA0004400053006
B1501255055016N00701992EA0004400053005
B1501265055001N00702016EA0004400052006
B1501275054986N00702040EA0004400052006
B1501285054970N00702065EA0004500053004
B1501295054955N00702090EA0004600053005
B1501305054940N00702114EA0004600053004
B1501315054925N00702139EA0004600053004
B1501325054910N00702165EA0004600053004
B1501335054897N00702192EA0004700052004
B1501345054884N00702218EA0004700052004
B1501355054870N00702244EA0004700051004
B1501365054856N00702272EA0004600051004
B1501375054843N00702297EA0004600051004
B1501385054830N00702322EA0004600051004
B1501395054816N00702346EA0004600052003
B1501405054802N00702370EA0004600051005
B1501415054788N00702394EA0004600051003
B1501425054773N00702417EA0004600050005
B1501435054759N00702440EA0004600050005
B1501445054744N00702464EA0004600050006
B1501455054729N00702486EA0004600050006
B1501465054715N00702508EA0004600050006
B1501475054702N00702530EA0004600050005
B1501485054687N00702552EA0004600050006
B1501495054673N00702574EA0004600049006
B1501505054659N00702596EA0004600049008
B1501515054645N00702617EA0004600050010
B1501525054632N00702637EA0004600049010
B1501535054617N00702659EA0004600049011
B1501545054603N00702680EA0004600049009
B1501555054590N00702700EA0004600049011
B1501565054576N00702719EA0004600049010
B1501575054558N00702741EA0004600049010
B1501585054544N00702759EA0004600049010
B1501595054532N00702776EA0004600050009
B1502005054518N00702794EA0004600050009
B1502015054505N00702811EA0004600051010
B1502025054491N00702828EA0004600050012
B1502035054473N00702845EA0004600051010
B1502045054459N00702862EA0004600051007
B1502055054442N00702881EA0004600050007
B1502065054428N00702898EA0004500050007
B1502075054417N00702914EA0004500050008
B1502085054403N00702929EA0004500050008
B1502095054389N00702944EA0004500051009
B1502105054374N00702960EA0004500050009
B1502115054361N00702973EA0004500051009
B1502125054347N00702987EA0004600051006
B1502135054332N00703002EA0004600051006
B1502145054317N00703017EA0004600052007
B1502155054302N00703032EA0004600052007
B1502165054288N00703046EA0004600052006
B1502175054273N00703059EA0004700052006
B1502185054259N00703073EA0004700052007
B1502195054245N00703085EA0004700052008
B1502205054231N00703098EA0004700052008
B1502215054216N00703111EA0004600052008
B1502225054202N00703123EA0004600052008
B1502235054187N00703135EA0004500051008
B1502245054172N00703148EA0004500051009
B1502255054158N00703160EA0004500051009
B1502265054144N00703172EA0004600052009
B1502275054130N00703183EA0004600051010
B1502285054114N00703193EA0004600051008
B1502295054095N00703191EA0004600051018
B1502305054080N00703201EA0004600051018
B1502315054065N00703211EA0004600051018
B1502325054051N00703222EA0004600051018
B1502335054039N00703245EA0004600051007
B1502345054024N00703254EA0004600051008
B1502355054008N00703264EA0004600050009
B1502365053993N00703273EA0004600050010
B1502375053978N00703282EA0004600051011
B1502385053963N00703292EA0004600051012
B1502395053948N00703301EA0004500051014
B1502405053934N00703309EA0004500051014
B1502415053919N00703317EA0004500051014
B1502425053908N00703326EA0004400051013
B1502435053896N00703335EA0004400051010
B1502445053882N00703344EA0004400051009
B1502455053864N00703353EA0004300051009
B1502465053849N00703362EA0004300051007
B1502475053835N00703370EA0004300051007
B1502485053820N00703379EA0004300050007
B1502495053806N00703388EA0004300050007
B1502505053791N00703396EA0004300050007
B1502515053776N00703404EA0004300050008
B1502525053760N00703412EA0004300050008
B1502535053744N00703420EA0004300050006
G3DF32890BDDCFCDB4294BDFBFB90B7A7D58B7F652CD2283A8A6FB5FF614D4607F873529
GB5675E5227D0B38E57CA235E6F7A5FA683DF47851EB385A2E732BEEDB40AB7F7A6D8F91
GDBD269DDE7536FC70BB6FCA114525103BF0B2792BEA968D2F56D803B2359804FEF8AD50
G10E88FDB3EEED2FBD8E3B2CE7A3D50923317FBB12E358DEB5727AD62942F7463108ABD5
GC185BC6E0975160BDF13D64EF88E0712BDE84FBBE658832C90998A3E8075209CB261921
G3EA36460E47D891E9CC1B93311CC05674D61FB0EB5F7C5E9ADBA68E34D866B694CD5C9C
G72A9E8265852E4D347D92ABCBB81CA9DB4404A6EC422A0E7850EDEAE66CDDA712B91453
GDEC3559A85F7DF5
